{
  "norad_id": 68437,
  "name": "TRANSPORTER-16 OBJECT X",
  "history": [
    {
      "epoch": "2026-04-14T03:17:46.118976Z",
      "apogee_km": 512.1964393315575,
      "perigee_km": 511.7700786899295,
      "latitude_deg": -4.2383924978828934e-05,
      "longitude_deg": 171.79366182703413,
      "height_km": 515.2440983090477,
      "semi_major_axis_km": 6890.120259010743,
      "eccentricity": 3.094e-05,
      "inclination_deg": 97.4457,
      "raan_deg": 63.5539,
      "arg_perigee_deg": 215.2445,
      "mean_anomaly_deg": 144.8768,
      "mean_motion_rev_day": 15.17967799
    }
  ]
}