{"fetched_at":"2026-04-16T17:13:58Z","count":4884,"tles":[{"name":"TRANSPORTER-16 OBJECT X","line1":"1 68437U 26067X   26104.13733934  .00007899  00000+0  39204-3 0  9998","line2":"2 68437  97.4457  63.5539 0000309 215.2445 144.8768 15.17967799  2227","category":"Other"}]}